NORAD_CAT_ID,OBJECT_NAME,OBJECT_TYPE,EPOCH,MEAN_MOTION,ECCENTRICITY,INCLINATION,RA_OF_ASC_NODE,ARG_OF_PERICENTER,MEAN_ANOMALY,BSTAR,MEAN_MOTION_DOT,MEAN_MOTION_DDOT,TLE_LINE0,TLE_LINE1,TLE_LINE2,SEMIMAJOR_AXIS,PERIOD,APOGEE,PERIGEE,DECAYED
54103.0,STARLINK-5200,PAYLOAD,2022-11-06 14:00:01,15.73160822,0.0001904,53.2158,63.8611,34.2802,256.9779,-0.00042762,-0.00060111,0.0,0 STARLINK-5200,1 54103U 22136BE  22310.58334491 -.00060111  00000-0 -42762-3 0  9997,2 54103  53.2158  63.8611 0001904  34.2802 256.9779 15.73160822  3167,6728.007,91.535,351.153,348.591,0.0
54103.0,STARLINK-5200,PAYLOAD,2022-11-07 08:00:01,15.73067388,0.0001912,53.2162,60.1488,34.8825,186.2697,0.00089938,0.00126804,0.0,0 STARLINK-5200,1 54103U 22136BE  22311.33334491  .00126804  00000-0  89938-3 0  9997,2 54103  53.2162  60.1488 0001912  34.8825 186.2697 15.73067388  3284,6728.273,91.541,351.425,348.852,0.0
54103.0,STARLINK-5200,PAYLOAD,2022-11-07 22:00:00,15.73370092,0.0002059,53.2155,57.2636,27.3574,259.3131,-0.00038604,-0.00054848,0.0,0 STARLINK-5200,1 54103U 22136BE  22311.91667824 -.00054848  00000-0 -38604-3 0  9994,2 54103  53.2155  57.2636 0002059  27.3574 259.3131 15.73370092  1304,6727.41,91.523,350.66,347.89,0.0
54103.0,STARLINK-5200,PAYLOAD,2022-11-08 00:00:02,15.7341645,0.000205,53.2157,56.8505,28.513,10.5288,-0.0001958,-0.00028268,0.0,0 STARLINK-5200,1 54103U 22136BE  22312.00002315 -.00028268  00000-0 -19580-3 0  9992,2 54103  53.2157  56.8505 0002050  28.5130  10.5288 15.73416450  3398,6727.278,91.521,350.522,347.764,0.0
54103.0,STARLINK-5200,PAYLOAD,2022-11-08 10:00:01,15.73390222,0.0002035,53.2162,54.7882,29.20300000000001,211.286,-0.00053566,-0.00075743,0.0,0 STARLINK-5200,1 54103U 22136BE  22312.41668981 -.00075743  00000-0 -53566-3 0  9996,2 54103  53.2162  54.7882 0002035  29.2030 211.2860 15.73390222  3450,6727.353,91.522,350.587,347.849,0.0
54103.0,STARLINK-5200,PAYLOAD,2022-11-08 14:00:01,15.73327957,0.0002175,53.216,53.9644,26.6759,78.3231,0.00014967,0.00020551,0.0,0 STARLINK-5200,1 54103U 22136BE  22312.58334491  .00020551  00000-0  14967-3 0  9997,2 54103  53.2160  53.9644 0002175  26.6759  78.3231 15.73327957  1300,6727.53,91.526,350.8590000000001,347.932,0.0
54103.0,STARLINK-5200,PAYLOAD,2022-11-08 22:00:00,15.73437933,0.0002199,53.2161,52.3141,23.3898,170.6908,-0.0014936,-0.00207294,0.0,0 STARLINK-5200,1 54103U 22136BE  22312.91667824 -.00207294  00000-0 -14936-2 0  9991,2 54103  53.2161  52.3141 0002199  23.3898 170.6908 15.73437933  3530,6727.217,91.519,350.561,347.603,0.0
54103.0,STARLINK-5200,PAYLOAD,2022-11-09 14:00:01,15.73087271,0.0002266,53.2159,49.0156,16.4367,355.6995,-8.8756e-05,-0.00012999,0.0,0 STARLINK-5200,1 54103U 22136BE  22313.58334491 -.00012999  00000-0 -88756-4 0  9995,2 54103  53.2159  49.0156 0002266  16.4367 355.6995 15.73087271  1305,6728.217,91.54,351.606,348.557,0.0
54103.0,STARLINK-5200,PAYLOAD,2022-11-09 22:00:01,15.73115204,0.0002265,53.2155,47.3656,15.7594,85.2094,-0.00017209,-0.00024617,0.0,0 STARLINK-5200,1 54103U 22136BE  22313.91668981 -.00024617  00000-0 -17209-3 0  9990,2 54103  53.2155  47.3656 0002265  15.7594  85.2094 15.73115204  3698,6728.137,91.538,351.526,348.478,0.0
54103.0,STARLINK-5200,PAYLOAD,2022-11-10 14:00:01,15.73124689,0.00025,53.2159,44.0683,20.6283,257.87,0.00045457,0.00063458,0.0,0 STARLINK-5200,1 54103U 22136BE  22314.58334491  .00063458  00000-0  45457-3 0  9990,2 54103  53.2159  44.0683 0002500  20.6283 257.8700 15.73124689  1302,6728.11,91.538,351.657,348.293,0.0
54103.0,STARLINK-5200,PAYLOAD,2022-11-10 22:00:00,15.73170284,0.0002506,53.2159,42.4179,21.8896,345.4756,0.00010349,0.0001391,0.0,0 STARLINK-5200,1 54103U 22136BE  22314.91667824  .00013910  00000-0  10349-3 0  9996,2 54103  53.2159  42.4179 0002506  21.8896 345.4756 15.73170284  3852,6727.98,91.535,351.531,348.159,0.0
54103.0,STARLINK-5200,PAYLOAD,2022-11-11 14:00:01,15.7321932,0.0002777,53.2155,39.1201,23.8689,161.3292,0.00054737,0.00076979,0.0,0 STARLINK-5200,1 54103U 22136BE  22315.58334491  .00076979  00000-0  54737-3 0  9994,2 54103  53.2155  39.1201 0002777  23.8689 161.3292 15.73219320  1302,6727.84,91.532,351.5730000000001,347.837,0.0
54103.0,STARLINK-5200,PAYLOAD,2022-11-11 16:00:01,15.73218269,0.0002794,53.2154,38.708,22.8831,274.6251,0.00075501,0.00106793,0.0,0 STARLINK-5200,1 54103U 22136BE  22315.66668981  .00106793  00000-0  75501-3 0  9997,2 54103  53.2154  38.7080 0002794  22.8831 274.6251 15.73218269  3966,6727.843000000003,91.532,351.588,347.82800000000015,0.0
54103.0,STARLINK-5200,PAYLOAD,2022-11-11 22:00:00,15.73346145,0.00027,53.2161,37.4679,23.4332,250.7468,-0.00080287,-0.00112532,0.0,0 STARLINK-5200,1 54103U 22136BE  22315.91667824 -.00112532  00000-0 -80287-3 0  9997,2 54103  53.2161  37.4679 0002700  23.4332 250.7468 15.73346145  1300,6727.479,91.525,351.16,347.527,0.0
54103.0,STARLINK-5200,PAYLOAD,2022-11-12 08:00:01,15.73275117,0.0002429,53.2154,35.4069,15.5024,99.9788,-0.00033,-0.00046834,0.0,0 STARLINK-5200,1 54103U 22136BE  22316.33334491 -.00046834  00000-0 -33000-3 0  9997,2 54103  53.2154  35.4069 0002429  15.5024  99.9788 15.73275117  4076,6727.681,91.529,351.18,347.912,0.0
54103.0,STARLINK-5200,PAYLOAD,2022-11-12 14:00:01,15.73234023,0.0002657,53.2154,34.1711,11.7768,80.4531,-0.00046999,-0.00066174,0.0,0 STARLINK-5200,1 54103U 22136BE  22316.58334491 -.00066174  00000-0 -46999-3 0  9994,2 54103  53.2154  34.1711 0002657  11.7768  80.4531 15.73234023  1307,6727.7980000000025,91.531,351.451,347.876,0.0
54103.0,STARLINK-5200,PAYLOAD,2022-11-12 22:00:00,15.73211024,0.000261,53.2155,32.5201,11.7528,169.4167,-0.00040966,-0.0005775999999999,0.0,0 STARLINK-5200,1 54103U 22136BE  22316.91667824 -.00057760  00000-0 -40966-3 0  9999,2 54103  53.2155  32.5201 0002610  11.7528 169.4167 15.73211024  4163,6727.864000000001,91.533,351.485,347.973,0.0
54103.0,STARLINK-5200,PAYLOAD,2022-11-13 14:00:01,15.73129533,0.0002818,53.215,29.2225,8.4511,350.543,0.00042246,0.00058914,0.0,0 STARLINK-5200,1 54103U 22136BE  22317.58334491  .00058914  00000-0  42246-3 0  9997,2 54103  53.2150  29.2225 0002818   8.4511 350.5430 15.73129533  4273,6728.096,91.537,351.857,348.065,0.0
54103.0,STARLINK-5200,PAYLOAD,2022-11-13 22:00:00,15.73176931,0.0002679,53.2147,27.5715,7.2851,80.5749,0.00027708,0.00038409,0.0,0 STARLINK-5200,1 54103U 22136BE  22317.91667824  .00038409  00000-0  27708-3 0  9996,2 54103  53.2147  27.5715 0002679   7.2851  80.5749 15.73176931  1301,6727.9609999999975,91.535,351.62800000000016,348.024,0.0
54103.0,STARLINK-5200,PAYLOAD,2022-11-14 14:00:01,15.73255939,0.0003003999999999,53.2152,24.2738,11.6466,254.1035,-0.00010921,-0.00015962,0.0,0 STARLINK-5200,1 54103U 22136BE  22318.58334491 -.00015962  00000-0 -10921-3 0  9991,2 54103  53.2152  24.2738 0003004  11.6466 254.1035 15.73255939  1303,6727.736,91.53,351.622,347.58,0.0
54103.0,STARLINK-5200,PAYLOAD,2022-11-14 22:00:00,15.73246686,0.0002865,53.2156,22.6221,13.0851,341.6531,-0.00044481,-0.00062724,0.0,0 STARLINK-5200,1 54103U 22136BE  22318.91667824 -.00062724  00000-0 -44481-3 0  9993,2 54103  53.2156  22.6221 0002865  13.0851 341.6531 15.73246686  1306,6727.762,91.53,351.555,347.7,0.0
54103.0,STARLINK-5200,PAYLOAD,2022-11-15 02:00:01,15.73210651,0.0002856999999999,53.2149,21.7969,14.8465,204.3886,-3.8297e-05,-5.997e-05,0.0,0 STARLINK-5200,1 54103U 22136BE  22319.08334491 -.00005997  00000-0 -38297-4 0  9991,2 54103  53.2149  21.7969 0002857  14.8465 204.3886 15.73210651  4504,6727.865,91.533,351.652,347.80800000000005,0.0
54103.0,STARLINK-5200,PAYLOAD,2022-11-15 14:00:01,15.73173021,0.0003233,53.2147,19.325,17.5408,155.0856,0.00054398,0.00076346,0.0,0 STARLINK-5200,1 54103U 22136BE  22319.58334491  .00076346  00000-0  54398-3 0  9999,2 54103  53.2147  19.3250 0003233  17.5408 155.0856 15.73173021  1307,6727.972,91.535,352.01199999999994,347.662,0.0
54103.0,STARLINK-5200,PAYLOAD,2022-11-15 22:00:00,15.73209523,0.0003029,53.2145,17.6737,17.599,243.9638,-0.00015124,-0.00021807,0.0,0 STARLINK-5200,1 54103U 22136BE  22319.91667824 -.00021807  00000-0 -15124-3 0  9993,2 54103  53.2145  17.6737 0003029  17.5990 243.9638 15.73209523  1307,6727.868,91.533,351.771,347.695,0.0
54103.0,STARLINK-5200,PAYLOAD,2022-11-16 06:00:00,15.73236821,0.0003001,53.2151,16.0235,19.7798,330.7048,-0.00058625,-0.00082251,0.0,0 STARLINK-5200,1 54103U 22136BE  22320.25001157 -.00082251  00000-0 -58625-3 0  9996,2 54103  53.2151  16.0235 0003001  19.7798 330.7048 15.73236821  4696,6727.79,91.531,351.6740000000001,347.636,0.0
54103.0,STARLINK-5200,PAYLOAD,2022-11-16 14:00:01,15.73163768,0.0003243,53.216,14.3753,19.7967,59.6936,0.00047718,0.00066791,0.0,0 STARLINK-5200,1 54103U 22136BE  22320.58335648  .00066791  00000-0  47718-3 0  9997,2 54103  53.2160  14.3753 0003243  19.7967  59.6936 15.73163768  1305,6727.998000000001,91.535,352.045,347.682,0.0
54103.0,STARLINK-5200,PAYLOAD,2022-11-16 20:00:01,15.73212566,0.0003031,53.2168,13.1358,17.4298,38.6747,-9.8106e-05,-0.00014379,0.0,0 STARLINK-5200,1 54103U 22136BE  22320.83334491 -.00014379  00000-0 -98106-4 0  9995,2 54103  53.2168  13.1358 0003031  17.4298  38.6747 15.73212566  4781,6727.859,91.532,351.764,347.685,0.0
54103.0,STARLINK-5200,PAYLOAD,2022-11-16 22:00:08,15.73204135,0.0002946,53.2173,12.7222,16.7367,152.065,-2.3436000000000003e-06,-9.52e-06,0.0,0 STARLINK-5200,1 54103U 22136BE  22320.91675926 -.00000952  00000-0 -23436-5 0  9992,2 54103  53.2173  12.7222 0002946  16.7367 152.0650 15.73204135  1307,6727.8830000000025,91.533,351.73,347.766,0.0
54103.0,STARLINK-5200,PAYLOAD,2022-11-17 06:00:00,15.73208989,0.000309,53.215,11.0754,14.4476,242.9456,-0.00013222,-0.00019149,0.0,0 STARLINK-5200,1 54103U 22136BE  22321.25001157 -.00019149  00000-0 -13222-3 0  9997,2 54103  53.2150  11.0754 0003090  14.4476 242.9456 15.73208989  4847,6727.87,91.533,351.81300000000016,347.656,0.0
